{"fetched_at":"2026-07-13T07:47:59.900Z","source":"https://celestrak.org/NORAD/elements/gp.php?GROUP=spire&FORMAT=JSON","constellation":"spire","records":[{"OBJECT_NAME":"LEMUR-1","OBJECT_ID":"2014-033AL","EPOCH":"2026-07-11T21:11:51.417600","CLASSIFICATION_TYPE":"U","MEAN_MOTION":14.85331099,"ECCENTRICITY":0.0048047,"INCLINATION":97.7903,"RA_OF_ASC_NODE":342.1444,"ARG_OF_PERICENTER":358.865,"MEAN_ANOMALY":1.2448,"EPHEMERIS_TYPE":0,"NORAD_CAT_ID":40044,"ELEMENT_SET_NO":999,"REV_AT_EPOCH":64913,"BSTAR":0.00010759,"MEAN_MOTION_DOT":0.00000888,"MEAN_MOTION_DDOT":0},{"OBJECT_NAME":"LEMUR-2-GREENBERG","OBJECT_ID":"2017-042N","EPOCH":"2026-07-09T11:53:19.376160","CLASSIFICATION_TYPE":"U","MEAN_MOTION":15.32031511,"ECCENTRICITY":0.00071356,"INCLINATION":97.3831,"RA_OF_ASC_NODE":11.0293,"ARG_OF_PERICENTER":283.6729,"MEAN_ANOMALY":76.3718,"EPHEMERIS_TYPE":0,"NORAD_CAT_ID":42837,"ELEMENT_SET_NO":999,"REV_AT_EPOCH":49180,"BSTAR":0.0003749711,"MEAN_MOTION_DOT":0.00011532,"MEAN_MOTION_DDOT":0},{"OBJECT_NAME":"LEMUR-2-ANDIS","OBJECT_ID":"2017-042P","EPOCH":"2026-07-12T11:15:38.397024","CLASSIFICATION_TYPE":"U","MEAN_MOTION":15.35849981,"ECCENTRICITY":0.0007132,"INCLINATION":97.3674,"RA_OF_ASC_NODE":14.2674,"ARG_OF_PERICENTER":269.8003,"MEAN_ANOMALY":90.2423,"EPHEMERIS_TYPE":0,"NORAD_CAT_ID":42838,"ELEMENT_SET_NO":999,"REV_AT_EPOCH":49233,"BSTAR":0.00036920282,"MEAN_MOTION_DOT":0.00012815,"MEAN_MOTION_DDOT":0},{"OBJECT_NAME":"LEMUR-2-MONSON","OBJECT_ID":"2017-042Q","EPOCH":"2026-07-10T11:15:45.883584","CLASSIFICATION_TYPE":"U","MEAN_MOTION":15.28674858,"ECCENTRICITY":0.00051568,"INCLINATION":97.4089,"RA_OF_ASC_NODE":11.9359,"ARG_OF_PERICENTER":266.7916,"MEAN_ANOMALY":93.2733,"EPHEMERIS_TYPE":0,"NORAD_CAT_ID":42839,"ELEMENT_SET_NO":999,"REV_AT_EPOCH":49172,"BSTAR":0.00034676682,"MEAN_MOTION_DOT":0.000096,"MEAN_MOTION_DDOT":0},{"OBJECT_NAME":"LEMUR-2-FURIAUS","OBJECT_ID":"2017-042R","EPOCH":"2026-07-12T10:41:36.677760","CLASSIFICATION_TYPE":"U","MEAN_MOTION":15.31072029,"ECCENTRICITY":0.00062398,"INCLINATION":97.3775,"RA_OF_ASC_NODE":11.8672,"ARG_OF_PERICENTER":340.6601,"MEAN_ANOMALY":19.4403,"EPHEMERIS_TYPE":0,"NORAD_CAT_ID":42840,"ELEMENT_SET_NO":999,"REV_AT_EPOCH":49207,"BSTAR":0.00035675373,"MEAN_MOTION_DOT":0.00010642,"MEAN_MOTION_DDOT":0},{"OBJECT_NAME":"LEMUR-2-PETERG","OBJECT_ID":"2017-042S","EPOCH":"2026-07-12T19:03:59.455296","CLASSIFICATION_TYPE":"U","MEAN_MOTION":15.34973234,"ECCENTRICITY":0.0003152,"INCLINATION":97.3989,"RA_OF_ASC_NODE":18.8865,"ARG_OF_PERICENTER":230.6051,"MEAN_ANOMALY":129.4913,"EPHEMERIS_TYPE":0,"NORAD_CAT_ID":42841,"ELEMENT_SET_NO":999,"REV_AT_EPOCH":49236,"BSTAR":0.00044268,"MEAN_MOTION_DOT":0.00014951,"MEAN_MOTION_DDOT":0},{"OBJECT_NAME":"LEMUR-2-DEMBITZ","OBJECT_ID":"2017-042T","EPOCH":"2026-07-12T11:09:59.302080","CLASSIFICATION_TYPE":"U","MEAN_MOTION":15.31053389,"ECCENTRICITY":0.00050816,"INCLINATION":97.3821,"RA_OF_ASC_NODE":14.9283,"ARG_OF_PERICENTER":286.7424,"MEAN_ANOMALY":73.326,"EPHEMERIS_TYPE":0,"NORAD_CAT_ID":42842,"ELEMENT_SET_NO":999,"REV_AT_EPOCH":49221,"BSTAR":0.00033095021,"MEAN_MOTION_DOT":0.00009858,"MEAN_MOTION_DDOT":0},{"OBJECT_NAME":"LEMUR-2-ZACHARY","OBJECT_ID":"2017-042W","EPOCH":"2026-07-12T11:22:55.117920","CLASSIFICATION_TYPE":"U","MEAN_MOTION":15.52533794,"ECCENTRICITY":0.00024605,"INCLINATION":97.3575,"RA_OF_ASC_NODE":25.6887,"ARG_OF_PERICENTER":261.6834,"MEAN_ANOMALY":98.414,"EPHEMERIS_TYPE":0,"NORAD_CAT_ID":42845,"ELEMENT_SET_NO":999,"REV_AT_EPOCH":49312,"BSTAR":0.00052089587,"MEAN_MOTION_DOT":0.00031926,"MEAN_MOTION_DDOT":0},{"OBJECT_NAME":"LEMUR-2-AMANDA-SVANTE","OBJECT_ID":"2021-034B","EPOCH":"2026-07-12T18:42:41.198400","CLASSIFICATION_TYPE":"U","MEAN_MOTION":15.35862163,"ECCENTRICITY":0.000453,"INCLINATION":97.5758,"RA_OF_ASC_NODE":272.7671,"ARG_OF_PERICENTER":149.3541,"MEAN_ANOMALY":210.7967,"EPHEMERIS_TYPE":0,"NORAD_CAT_ID":48269,"ELEMENT_SET_NO":999,"REV_AT_EPOCH":28498,"BSTAR":0.00074134,"MEAN_MOTION_DOT":0.00025852,"MEAN_MOTION_DDOT":0},{"OBJECT_NAME":"LEMUR-2-SPECIAL-K","OBJECT_ID":"2021-034F","EPOCH":"2026-07-12T18:59:05.709120","CLASSIFICATION_TYPE":"U","MEAN_MOTION":15.73857408,"ECCENTRICITY":0.000621,"INCLINATION":97.564,"RA_OF_ASC_NODE":282.6731,"ARG_OF_PERICENTER":216.3246,"MEAN_ANOMALY":143.7597,"EPHEMERIS_TYPE":0,"NORAD_CAT_ID":48273,"ELEMENT_SET_NO":999,"REV_AT_EPOCH":28570,"BSTAR":0.001554,"MEAN_MOTION_DOT":0.00224827,"MEAN_MOTION_DDOT":0},{"OBJECT_NAME":"LEMUR-2-EMBRIONOVIS","OBJECT_ID":"2023-084AQ","EPOCH":"2026-07-12T20:06:50.506848","CLASSIFICATION_TYPE":"U","MEAN_MOTION":15.38191732,"ECCENTRICITY":0.0008097,"INCLINATION":97.6313,"RA_OF_ASC_NODE":339.0377,"ARG_OF_PERICENTER":215.5388,"MEAN_ANOMALY":144.5318,"EPHEMERIS_TYPE":0,"NORAD_CAT_ID":56970,"ELEMENT_SET_NO":999,"REV_AT_EPOCH":17162,"BSTAR":0.00026205,"MEAN_MOTION_DOT":0.0000978,"MEAN_MOTION_DDOT":0},{"OBJECT_NAME":"LEMUR-2-DEVERILL-M-T","OBJECT_ID":"2023-100F","EPOCH":"2026-07-12T15:12:24.755904","CLASSIFICATION_TYPE":"U","MEAN_MOTION":15.41007808,"ECCENTRICITY":0.0004673,"INCLINATION":99.4458,"RA_OF_ASC_NODE":239.7654,"ARG_OF_PERICENTER":307.8207,"MEAN_ANOMALY":52.2609,"EPHEMERIS_TYPE":0,"NORAD_CAT_ID":57391,"ELEMENT_SET_NO":999,"REV_AT_EPOCH":16516,"BSTAR":0.00043148,"MEAN_MOTION_DOT":0.00017703,"MEAN_MOTION_DDOT":0},{"OBJECT_NAME":"LEMUR-2-BASS","OBJECT_ID":"2023-174D","EPOCH":"2026-07-12T18:04:15.935808","CLASSIFICATION_TYPE":"U","MEAN_MOTION":15.43942416,"ECCENTRICITY":0.0007761,"INCLINATION":97.3851,"RA_OF_ASC_NODE":278.8361,"ARG_OF_PERICENTER":85.5175,"MEAN_ANOMALY":274.6959,"EPHEMERIS_TYPE":0,"NORAD_CAT_ID":58259,"ELEMENT_SET_NO":999,"REV_AT_EPOCH":14930,"BSTAR":0.00028517,"MEAN_MOTION_DOT":0.00012902,"MEAN_MOTION_DDOT":0},{"OBJECT_NAME":"LEMUR-2-JK0903EM1407","OBJECT_ID":"2023-174CJ","EPOCH":"2026-07-12T19:11:04.373952","CLASSIFICATION_TYPE":"U","MEAN_MOTION":15.52985457,"ECCENTRICITY":0.0003839,"INCLINATION":97.3925,"RA_OF_ASC_NODE":285.0147,"ARG_OF_PERICENTER":41.9807,"MEAN_ANOMALY":318.174,"EPHEMERIS_TYPE":0,"NORAD_CAT_ID":58336,"ELEMENT_SET_NO":999,"REV_AT_EPOCH":14970,"BSTAR":0.0003424,"MEAN_MOTION_DOT":0.00021271,"MEAN_MOTION_DDOT":0},{"OBJECT_NAME":"LEMUR-2-MJR092620","OBJECT_ID":"2023-174CN","EPOCH":"2026-07-12T19:13:11.781120","CLASSIFICATION_TYPE":"U","MEAN_MOTION":15.45807288,"ECCENTRICITY":0.0005521,"INCLINATION":97.3982,"RA_OF_ASC_NODE":284.3173,"ARG_OF_PERICENTER":38.1554,"MEAN_ANOMALY":322.0085,"EPHEMERIS_TYPE":0,"NORAD_CAT_ID":58340,"ELEMENT_SET_NO":999,"REV_AT_EPOCH":14960,"BSTAR":0.00030698,"MEAN_MOTION_DOT":0.00014802,"MEAN_MOTION_DDOT":0},{"OBJECT_NAME":"LEMUR-2-NIMBUS2000","OBJECT_ID":"2024-022A","EPOCH":"2026-07-12T12:59:35.500704","CLASSIFICATION_TYPE":"U","MEAN_MOTION":15.41041214,"ECCENTRICITY":0.00090269,"INCLINATION":97.4088,"RA_OF_ASC_NODE":43.8762,"ARG_OF_PERICENTER":37.5068,"MEAN_ANOMALY":322.6807,"EPHEMERIS_TYPE":0,"NORAD_CAT_ID":58899,"ELEMENT_SET_NO":999,"REV_AT_EPOCH":13617,"BSTAR":0.00035694412,"MEAN_MOTION_DOT":0.00014682,"MEAN_MOTION_DDOT":0}]}
